NORAD_CAT_ID,OBJECT_NAME,OBJECT_TYPE,EPOCH,MEAN_MOTION,ECCENTRICITY,INCLINATION,RA_OF_ASC_NODE,ARG_OF_PERICENTER,MEAN_ANOMALY,BSTAR,MEAN_MOTION_DOT,MEAN_MOTION_DDOT,TLE_LINE0,TLE_LINE1,TLE_LINE2,SEMIMAJOR_AXIS,PERIOD,APOGEE,PERIGEE,DECAYED
51886.0,STARLINK-3565,PAYLOAD,2023-10-28 15:52:54,15.08850904,0.0001779,53.2172,273.4009,95.0588,265.0607,0.00013278,1.826e-05,0.0,0 STARLINK-3565,1 51886U 22022AL  23301.66174021  .00001826  00000-0  13278-3 0  9993,2 51886  53.2172 273.4009 0001779  95.0588 265.0607 15.08850904 92966,6917.847,95.437,540.943,538.481,0.0
51886.0,STARLINK-3565,PAYLOAD,2023-10-28 22:14:27,15.08826176,0.0001239,53.2173,272.2132,100.4819,259.6312,-0.00026079,-4.434e-05,0.0,0 STARLINK-3565,1 51886U 22022AL  23301.92671082 -.00004434  00000-0 -26079-3 0  9994,2 51886  53.2173 272.2132 0001239 100.4819 259.6312 15.08826176 93002,6917.923,95.438,540.645,538.931,0.0
51886.0,STARLINK-3565,PAYLOAD,2023-10-29 04:36:00,15.08834983,0.0001607,53.2176,271.0238,105.5073,254.6097,-7.8877e-05,-1.543e-05,0.0,0 STARLINK-3565,1 51886U 22022AL  23302.19166869 -.00001543  00000-0 -78877-4 0  9998,2 51886  53.2176 271.0238 0001607 105.5073 254.6097 15.08834983 93040,6917.896,95.438,540.872,538.649,0.0
51886.0,STARLINK-3565,PAYLOAD,2023-10-29 07:46:45,15.08845188,0.0001514,53.2177,270.4272,101.9255,258.1907,-0.00021685,-3.738e-05,0.0,0 STARLINK-3565,1 51886U 22022AL  23302.32414300 -.00003738  00000-0 -21685-3 0  9991,2 51886  53.2177 270.4272 0001514 101.9255 258.1907 15.08845188 93061,6917.865,95.437,540.777,538.682,0.0
51886.0,STARLINK-3565,PAYLOAD,2023-10-29 22:05:15,15.08831258,0.0001514,53.2172,267.7491,105.2219,254.894,-0.00019018,-3.313e-05,0.0,0 STARLINK-3565,1 51886U 22022AL  23302.92031277 -.00003313  00000-0 -19018-3 0  9991,2 51886  53.2172 267.7491 0001514 105.2219 254.8940 15.08831258 93158,6917.907,95.438,540.819,538.725,0.0
51886.0,STARLINK-3565,PAYLOAD,2023-10-30 04:26:47,15.08838535,0.0001654,53.2178,266.5644,96.604,263.514,-0.00015065,-2.685e-05,0.0,0 STARLINK-3565,1 51886U 22022AL  23303.18527155 -.00002685  00000-0 -15065-3 0  9994,2 51886  53.2178 266.5644 0001654  96.6040 263.5140 15.08838535 93199,6917.885,95.438,540.894,538.606,0.0
51886.0,STARLINK-3565,PAYLOAD,2023-10-30 21:56:03,15.0882786,0.0001503,53.2182,263.2934,95.9307,264.1856,0.00027899,4.153e-05,0.0,0 STARLINK-3565,1 51886U 22022AL  23303.91392410  .00004153  00000-0  27899-3 0  9997,2 51886  53.2182 263.2934 0001503  95.9307 264.1856 15.08827860 93304,6917.917,95.438,540.822,538.743,0.0
51886.0,STARLINK-3565,PAYLOAD,2023-10-31 04:17:35,15.08835889,0.0001418,53.2188,262.1064,92.8339,267.2815,0.00031695,4.759e-05,0.0,0 STARLINK-3565,1 51886U 22022AL  23304.17888363  .00004759  00000-0  31695-3 0  9994,2 51886  53.2188 262.1064 0001418  92.8339 267.2815 15.08835889 93341,6917.893,95.438,540.739,538.777,0.0
51886.0,STARLINK-3565,PAYLOAD,2023-10-31 13:49:54,15.08834995,0.0001493,53.2185,260.3221,93.9977,266.1186,0.0002121,3.089e-05,0.0,0 STARLINK-3565,1 51886U 22022AL  23304.57632557  .00003089  00000-0  21210-3 0  9997,2 51886  53.2185 260.3221 0001493  93.9977 266.1186 15.08834995 93409,6917.896,95.438,540.794,538.728,0.0
51886.0,STARLINK-3565,PAYLOAD,2023-10-31 21:46:49,15.08844967,0.0001544,53.2182,258.8346,92.8688,267.2481,0.00018804,2.706e-05,0.0,0 STARLINK-3565,1 51886U 22022AL  23304.90752185  .00002706  00000-0  18804-3 0  9994,2 51886  53.2182 258.8346 0001544  92.8688 267.2481 15.08844967 93455,6917.865,95.437,540.798,538.662,0.0
51886.0,STARLINK-3565,PAYLOAD,2023-11-01 07:19:08,15.08861943,0.0001444,53.2178,257.0488,85.6147,274.501,0.00072227,0.00011232,0.0,0 STARLINK-3565,1 51886U 22022AL  23305.30495739  .00011232  00000-0  72227-3 0  9991,2 51886  53.2178 257.0488 0001444  85.6147 274.5010 15.08861943 93516,6917.813,95.436,540.677,538.679,0.0
51886.0,STARLINK-3565,PAYLOAD,2023-11-01 13:40:41,15.08844734,0.00029,53.2184,255.858,76.6288,283.5028,0.00025477,3.769e-05,0.0,0 STARLINK-3565,1 51886U 22022AL  23305.56992585  .00003769  00000-0  25477-3 0  9991,2 51886  53.2184 255.8580 0002900  76.6288 283.5028 15.08844734 93558,6917.866,95.437,541.737,537.725,0.0
51886.0,STARLINK-3565,PAYLOAD,2023-11-01 20:02:13,15.08850447,0.0002464,53.2168,254.6685,75.9344,284.1922,0.00029298,4.379e-05,0.0,0 STARLINK-3565,1 51886U 22022AL  23305.83488160  .00004379  00000-0  29298-3 0  9993,2 51886  53.2168 254.6685 0002464  75.9344 284.1922 15.08850447 93595,6917.848,95.437,541.418,538.009,0.0
51886.0,STARLINK-3565,PAYLOAD,2023-11-02 03:59:09,15.08843266,0.0001779,53.2193,253.1847,82.4342,277.6852,0.00010123,1.323e-05,0.0,0 STARLINK-3565,1 51886U 22022AL  23306.16608143  .00001323  00000-0  10123-3 0  9998,2 51886  53.2193 253.1847 0001779  82.4342 277.6852 15.08843266 93642,6917.87,95.437,540.966,538.505,0.0
51886.0,STARLINK-3565,PAYLOAD,2023-11-02 13:31:28,15.08842382,0.0001427,53.2181,251.3985,90.5283,269.5873,0.00010544,1.391e-05,0.0,0 STARLINK-3565,1 51886U 22022AL  23306.56351979  .00001391  00000-0  10544-3 0  9996,2 51886  53.2181 251.3985 0001427  90.5283 269.5873 15.08842382 93704,6917.873,95.437,540.725,538.751,0.0
51886.0,STARLINK-3565,PAYLOAD,2023-11-03 05:25:19,15.08853552,0.0001683,53.2182,248.4247,90.9022,269.2163,0.00058137,8.98e-05,0.0,0 STARLINK-3565,1 51886U 22022AL  23307.22591843  .00008980  00000-0  58137-3 0  9997,2 51886  53.2182 248.4247 0001683  90.9022 269.2163 15.08853552 93803,6917.839,95.437,540.868,538.54,0.0
51886.0,STARLINK-3565,PAYLOAD,2023-11-03 19:43:47,15.08841779,0.0001889,53.2183,245.7512,89.8283,270.2925,8.8578e-05,1.122e-05,0.0,0 STARLINK-3565,1 51886U 22022AL  23307.82208275  .00001122  00000-0  88578-4 0  9991,2 51886  53.2183 245.7512 0001889  89.8283 270.2925 15.08841779 93898,6917.875,95.437,541.047,538.433,0.0
51886.0,STARLINK-3565,PAYLOAD,2023-11-04 13:13:02,15.08842993,0.0001804,53.2179,242.4778,87.1666,272.9532,0.00026063,3.863e-05,0.0,0 STARLINK-3565,1 51886U 22022AL  23308.55072648  .00003863  00000-0  26063-3 0  9999,2 51886  53.2179 242.4778 0001804  87.1666 272.9532 15.08842993 94000,6917.871,95.437,540.984,538.488,0.0
51886.0,STARLINK-3565,PAYLOAD,2023-11-05 01:56:07,15.08845564,0.0001654,53.2163,240.0965,94.1449,265.9733,0.00058766,9.078e-05,0.0,0 STARLINK-3565,1 51886U 22022AL  23309.08064388  .00009078  00000-0  58766-3 0  9999,2 51886  53.2163 240.0965 0001654  94.1449 265.9733 15.08845564 94085,6917.863,95.437,540.873,538.584,0.0
51886.0,STARLINK-3565,PAYLOAD,2023-11-05 13:03:49,15.08861972,0.0001678,53.2165,238.0174,89.1702,270.9483,0.00077126,0.00012015,0.0,0 STARLINK-3565,1 51886U 22022AL  23309.54431907  .00012015  00000-0  77126-3 0  9991,2 51886  53.2165 238.0174 0001678  89.1702 270.9483 15.08861972 94155,6917.813,95.436,540.839,538.517,0.0
51886.0,STARLINK-3565,PAYLOAD,2023-11-05 22:36:07,15.08890637,0.0001704,53.2164,236.2329,87.7948,272.3239,0.0016458,0.00026039,0.0,0 STARLINK-3565,1 51886U 22022AL  23309.94174973  .00026039  00000-0  16458-2 0  9993,2 51886  53.2164 236.2329 0001704  87.7948 272.3239 15.08890637 94214,6917.726,95.434,540.769,538.412,0.0
51886.0,STARLINK-3565,PAYLOAD,2023-11-06 01:46:52,15.08924993,0.000189,53.2172,235.6383,100.2309,259.8896,0.0034199,0.0005469,0.0,0 STARLINK-3565,1 51886U 22022AL  23310.07422176  .00054690  00000-0  34199-2 0  9996,2 51886  53.2172 235.6383 0001890 100.2309 259.8896 15.08924993 94238,6917.621,95.432,540.793,538.178,0.0
51886.0,STARLINK-3565,PAYLOAD,2023-11-06 04:57:38,15.08944489,0.0001806,53.2173,235.0434,97.7183,262.4015,0.0041352,0.00066334,0.0,0 STARLINK-3565,1 51886U 22022AL  23310.20669376  .00066334  00000-0  41352-2 0  9993,2 51886  53.2173 235.0434 0001806  97.7183 262.4015 15.08944489 94254,6917.561,95.431,540.675,538.177,0.0
51886.0,STARLINK-3565,PAYLOAD,2023-11-06 22:26:52,15.08851286,0.0001531,53.2159,231.7724,126.2615,233.8519,0.00048341,7.416e-05,0.0,0 STARLINK-3565,1 51886U 22022AL  23310.93533295  .00007416  00000-0  48341-3 0  9995,2 51886  53.2159 231.7724 0001531 126.2615 233.8519 15.08851286 94361,6917.846,95.437,540.77,538.652,0.0
51886.0,STARLINK-3565,PAYLOAD,2023-11-07 01:37:39,15.08771337,0.0001379,53.2168,231.1785,86.2766,273.8384,-0.0005514,-9.036e-05,0.0,0 STARLINK-3565,1 51886U 22022AL  23311.06782376 -.00009036  00000-0 -55140-3 0  9993,2 51886  53.2168 231.1785 0001379  86.2766 273.8384 15.08771337 94388,6918.09,95.442,540.909,539.001,0.0
51886.0,STARLINK-3565,PAYLOAD,2023-11-07 06:23:49,15.08791397,0.0001354,53.2161,230.2869,86.3704,273.7443,-0.0013235,-0.00021261,0.0,0 STARLINK-3565,1 51886U 22022AL  23311.26654771 -.00021261  00000-0 -13235-2 0  9994,2 51886  53.2161 230.2869 0001354  86.3704 273.7443 15.08791397 94417,6918.029,95.441,540.831,538.957,0.0
51886.0,STARLINK-3565,PAYLOAD,2023-11-08 01:28:29,15.08846055,0.0002174,53.2169,226.72,114.5079,245.614,0.0034646,0.00055294,0.0,0 STARLINK-3565,1 51886U 22022AL  23312.06145385  .00055294  00000-0  34646-2 0  9999,2 51886  53.2169 226.7200 0002174 114.5079 245.6140 15.08846055 94531,6917.862,95.437,541.231,538.223,0.0
51886.0,STARLINK-3565,PAYLOAD,2023-11-08 22:08:30,15.08944219,0.0002612,53.2172,222.8567,144.6592,215.4574,0.0045053,0.00072359,0.0,0 STARLINK-3565,1 51886U 22022AL  23312.92257059  .00072359  00000-0  45053-2 0  9991,2 51886  53.2172 222.8567 0002612 144.6592 215.4574 15.08944219 94660,6917.562,95.431,541.234,537.62,0.0
51886.0,STARLINK-3565,PAYLOAD,2023-11-09 02:54:39,15.08875506,0.0001471,53.2171,221.9647,115.7031,244.4113,0.00040802,6.218e-05,0.0,0 STARLINK-3565,1 51886U 22022AL  23313.12129578  .00006218  00000-0  40802-3 0  9997,2 51886  53.2171 221.9647 0001471 115.7031 244.4113 15.08875506 94693,6917.772,95.435,540.654,538.619,0.0
51886.0,STARLINK-3565,PAYLOAD,2023-11-09 21:59:17,15.08854911,0.0001428,53.2173,218.399,119.3648,240.7487,0.00088913,0.00013897,0.0,0 STARLINK-3565,1 51886U 22022AL  23313.91617103  .00013897  00000-0  88913-3 0  9996,2 51886  53.2173 218.3990 0001428 119.3648 240.7487 15.08854911 94816,6917.835,95.437,540.688,538.712,0.0
